STARLINK-36791          
1 68111U 26044L   26076.25002315 -.02028169  11279-2 -59909-2 0  9998
2 68111  97.2811  36.7162 0001489  97.3777  29.3247 15.92735586  2565
STARLINK-36893          
1 68112U 26044M   26076.25002315 -.02015908  11166-2 -59160-2 0  9990
2 68112  97.2807  36.7171 0001523  98.3050  31.3468 15.92859970  2613
STARLINK-36937          
1 68113U 26044N   26076.25002315 -.02023263  11273-2 -58601-2 0  9992
2 68113  97.2808  36.7199 0001549  99.6514  36.0870 15.93113956  2563
STARLINK-36229          
1 68114U 26044P   26076.25002315 -.02024762  11273-2 -59039-2 0  9994
2 68114  97.2801  36.7177 0001562 101.6667  31.1417 15.92984897  2619
STARLINK-36392          
1 68115U 26044Q   26076.25002315 -.02033624  11396-2 -58559-2 0  9994
2 68115  97.2804  36.7210 0001542 102.5860  36.5819 15.93226978  2619
STARLINK-36805          
1 68116U 26044R   26076.25002315 -.02037790  11451-2 -58391-2 0  9999
2 68116  97.2802  36.7224 0001554 101.5389  41.3796 15.93321831  2613
STARLINK-36844          
1 68117U 26044S   26076.25002315 -.02038240  11472-2 -58016-2 0  9998
2 68117  97.2797  36.7234 0001571 102.7862  43.1184 15.93449696  2561
STARLINK-36789          
1 68118U 26044T   26076.25002315 -.02073317  11850-2 -58970-2 0  9992
2 68118  97.2798  36.7260 0001625  97.3539  53.9456 15.93467505  2562
STARLINK-36850          
1 68119U 26044U   26076.25002315 -.02071984  11852-2 -58550-2 0  9997
2 68119  97.2797  36.7272 0001628 101.1406  53.2276 15.93591824  2560
STARLINK-36868          
1 68120U 26044V   26076.25002315 -.02084384  12000-2 -58575-2 0  9990
2 68120  97.2792  36.7290 0001612 100.4504  57.5869 15.93699066  2563
STARLINK-36855          
1 68121U 26044W   26076.25002315 -.02097382  12158-2 -58587-2 0  9990
2 68121  97.2792  36.7306 0001652 104.7950  56.6574 15.93815181  2569
STARLINK-36366          
1 68122U 26044X   26076.25002315 -.02100731  12213-2 -58267-2 0  9991
2 68122  97.2789  36.7316 0001696 103.7327  60.6482 15.93950051  2617
