CCSDS_OMM_VERS = 2.0
CREATION_DATE  = 
ORIGINATOR     = 

OBJECT_NAME    = STARLINK-36791
OBJECT_ID      = 2026-044L
CENTER_NAME    = EARTH
REF_FRAME      = TEME
TIME_SYSTEM    = UTC
MEAN_ELEMENT_THEORY = SGP/SGP4

EPOCH          = 2026-03-17T06:00:02.000160
MEAN_MOTION    = 15.92735586
ECCENTRICITY   = .00014892
INCLINATION    = 97.2811
RA_OF_ASC_NODE = 36.7162
ARG_OF_PERICENTER = 97.3777
MEAN_ANOMALY   = 29.3247

EPHEMERIS_TYPE = 0
CLASSIFICATION_TYPE = U
NORAD_CAT_ID   = 68111
ELEMENT_SET_NO = 999
REV_AT_EPOCH   = 256
BSTAR          = -.5990907E-2
MEAN_MOTION_DOT = -.2028169E-1
MEAN_MOTION_DDOT = .11279357E-2

CCSDS_OMM_VERS = 2.0
CREATION_DATE  = 
ORIGINATOR     = 

OBJECT_NAME    = STARLINK-36893
OBJECT_ID      = 2026-044M
CENTER_NAME    = EARTH
REF_FRAME      = TEME
TIME_SYSTEM    = UTC
MEAN_ELEMENT_THEORY = SGP/SGP4

EPOCH          = 2026-03-17T06:00:02.000160
MEAN_MOTION    = 15.92859970
ECCENTRICITY   = .00015236
INCLINATION    = 97.2807
RA_OF_ASC_NODE = 36.7171
ARG_OF_PERICENTER = 98.3050
MEAN_ANOMALY   = 31.3468

EPHEMERIS_TYPE = 0
CLASSIFICATION_TYPE = U
NORAD_CAT_ID   = 68112
ELEMENT_SET_NO = 999
REV_AT_EPOCH   = 261
BSTAR          = -.59160118E-2
MEAN_MOTION_DOT = -.2015908E-1
MEAN_MOTION_DDOT = .11165644E-2

CCSDS_OMM_VERS = 2.0
CREATION_DATE  = 
ORIGINATOR     = 

OBJECT_NAME    = STARLINK-36937
OBJECT_ID      = 2026-044N
CENTER_NAME    = EARTH
REF_FRAME      = TEME
TIME_SYSTEM    = UTC
MEAN_ELEMENT_THEORY = SGP/SGP4

EPOCH          = 2026-03-17T06:00:02.000160
MEAN_MOTION    = 15.93113956
ECCENTRICITY   = .00015491
INCLINATION    = 97.2808
RA_OF_ASC_NODE = 36.7199
ARG_OF_PERICENTER = 99.6514
MEAN_ANOMALY   = 36.0870

EPHEMERIS_TYPE = 0
CLASSIFICATION_TYPE = U
NORAD_CAT_ID   = 68113
ELEMENT_SET_NO = 999
REV_AT_EPOCH   = 256
BSTAR          = -.5860058E-2
MEAN_MOTION_DOT = -.2023263E-1
MEAN_MOTION_DDOT = .11272772E-2

CCSDS_OMM_VERS = 2.0
CREATION_DATE  = 
ORIGINATOR     = 

OBJECT_NAME    = STARLINK-36229
OBJECT_ID      = 2026-044P
CENTER_NAME    = EARTH
REF_FRAME      = TEME
TIME_SYSTEM    = UTC
MEAN_ELEMENT_THEORY = SGP/SGP4

EPOCH          = 2026-03-17T06:00:02.000160
MEAN_MOTION    = 15.92984897
ECCENTRICITY   = .00015623
INCLINATION    = 97.2801
RA_OF_ASC_NODE = 36.7177
ARG_OF_PERICENTER = 101.6667
MEAN_ANOMALY   = 31.1417

EPHEMERIS_TYPE = 0
CLASSIFICATION_TYPE = U
NORAD_CAT_ID   = 68114
ELEMENT_SET_NO = 999
REV_AT_EPOCH   = 261
BSTAR          = -.59038862E-2
MEAN_MOTION_DOT = -.2024762E-1
MEAN_MOTION_DDOT = .11273162E-2

CCSDS_OMM_VERS = 2.0
CREATION_DATE  = 
ORIGINATOR     = 

OBJECT_NAME    = STARLINK-36392
OBJECT_ID      = 2026-044Q
CENTER_NAME    = EARTH
REF_FRAME      = TEME
TIME_SYSTEM    = UTC
MEAN_ELEMENT_THEORY = SGP/SGP4

EPOCH          = 2026-03-17T06:00:02.000160
MEAN_MOTION    = 15.93226978
ECCENTRICITY   = .00015422
INCLINATION    = 97.2804
RA_OF_ASC_NODE = 36.7210
ARG_OF_PERICENTER = 102.5860
MEAN_ANOMALY   = 36.5819

EPHEMERIS_TYPE = 0
CLASSIFICATION_TYPE = U
NORAD_CAT_ID   = 68115
ELEMENT_SET_NO = 999
REV_AT_EPOCH   = 261
BSTAR          = -.58558931E-2
MEAN_MOTION_DOT = -.2033624E-1
MEAN_MOTION_DDOT = .11395646E-2

CCSDS_OMM_VERS = 2.0
CREATION_DATE  = 
ORIGINATOR     = 

OBJECT_NAME    = STARLINK-36805
OBJECT_ID      = 2026-044R
CENTER_NAME    = EARTH
REF_FRAME      = TEME
TIME_SYSTEM    = UTC
MEAN_ELEMENT_THEORY = SGP/SGP4

EPOCH          = 2026-03-17T06:00:02.000160
MEAN_MOTION    = 15.93321831
ECCENTRICITY   = .00015547
INCLINATION    = 97.2802
RA_OF_ASC_NODE = 36.7224
ARG_OF_PERICENTER = 101.5389
MEAN_ANOMALY   = 41.3796

EPHEMERIS_TYPE = 0
CLASSIFICATION_TYPE = U
NORAD_CAT_ID   = 68116
ELEMENT_SET_NO = 999
REV_AT_EPOCH   = 261
BSTAR          = -.58391009E-2
MEAN_MOTION_DOT = -.203779E-1
MEAN_MOTION_DDOT = .1145132E-2

CCSDS_OMM_VERS = 2.0
CREATION_DATE  = 
ORIGINATOR     = 

OBJECT_NAME    = STARLINK-36844
OBJECT_ID      = 2026-044S
CENTER_NAME    = EARTH
REF_FRAME      = TEME
TIME_SYSTEM    = UTC
MEAN_ELEMENT_THEORY = SGP/SGP4

EPOCH          = 2026-03-17T06:00:02.000160
MEAN_MOTION    = 15.93449696
ECCENTRICITY   = .00015711
INCLINATION    = 97.2797
RA_OF_ASC_NODE = 36.7234
ARG_OF_PERICENTER = 102.7862
MEAN_ANOMALY   = 43.1184

EPHEMERIS_TYPE = 0
CLASSIFICATION_TYPE = U
NORAD_CAT_ID   = 68117
ELEMENT_SET_NO = 999
REV_AT_EPOCH   = 256
BSTAR          = -.58015811E-2
MEAN_MOTION_DOT = -.203824E-1
MEAN_MOTION_DDOT = .11471688E-2

CCSDS_OMM_VERS = 2.0
CREATION_DATE  = 
ORIGINATOR     = 

OBJECT_NAME    = STARLINK-36789
OBJECT_ID      = 2026-044T
CENTER_NAME    = EARTH
REF_FRAME      = TEME
TIME_SYSTEM    = UTC
MEAN_ELEMENT_THEORY = SGP/SGP4

EPOCH          = 2026-03-17T06:00:02.000160
MEAN_MOTION    = 15.93467505
ECCENTRICITY   = .00016258
INCLINATION    = 97.2798
RA_OF_ASC_NODE = 36.7260
ARG_OF_PERICENTER = 97.3539
MEAN_ANOMALY   = 53.9456

EPHEMERIS_TYPE = 0
CLASSIFICATION_TYPE = U
NORAD_CAT_ID   = 68118
ELEMENT_SET_NO = 999
REV_AT_EPOCH   = 256
BSTAR          = -.58970238E-2
MEAN_MOTION_DOT = -.2073317E-1
MEAN_MOTION_DDOT = .11850416E-2

CCSDS_OMM_VERS = 2.0
CREATION_DATE  = 
ORIGINATOR     = 

OBJECT_NAME    = STARLINK-36850
OBJECT_ID      = 2026-044U
CENTER_NAME    = EARTH
REF_FRAME      = TEME
TIME_SYSTEM    = UTC
MEAN_ELEMENT_THEORY = SGP/SGP4

EPOCH          = 2026-03-17T06:00:02.000160
MEAN_MOTION    = 15.93591824
ECCENTRICITY   = .00016289
INCLINATION    = 97.2797
RA_OF_ASC_NODE = 36.7272
ARG_OF_PERICENTER = 101.1406
MEAN_ANOMALY   = 53.2276

EPHEMERIS_TYPE = 0
CLASSIFICATION_TYPE = U
NORAD_CAT_ID   = 68119
ELEMENT_SET_NO = 999
REV_AT_EPOCH   = 256
BSTAR          = -.58550431E-2
MEAN_MOTION_DOT = -.2071984E-1
MEAN_MOTION_DDOT = .11851746E-2

CCSDS_OMM_VERS = 2.0
CREATION_DATE  = 
ORIGINATOR     = 

OBJECT_NAME    = STARLINK-36868
OBJECT_ID      = 2026-044V
CENTER_NAME    = EARTH
REF_FRAME      = TEME
TIME_SYSTEM    = UTC
MEAN_ELEMENT_THEORY = SGP/SGP4

EPOCH          = 2026-03-17T06:00:02.000160
MEAN_MOTION    = 15.93699066
ECCENTRICITY   = .00016126
INCLINATION    = 97.2792
RA_OF_ASC_NODE = 36.7290
ARG_OF_PERICENTER = 100.4504
MEAN_ANOMALY   = 57.5869

EPHEMERIS_TYPE = 0
CLASSIFICATION_TYPE = U
NORAD_CAT_ID   = 68120
ELEMENT_SET_NO = 999
REV_AT_EPOCH   = 256
BSTAR          = -.58575387E-2
MEAN_MOTION_DOT = -.2084384E-1
MEAN_MOTION_DDOT = .12000368E-2

CCSDS_OMM_VERS = 2.0
CREATION_DATE  = 
ORIGINATOR     = 

OBJECT_NAME    = STARLINK-36855
OBJECT_ID      = 2026-044W
CENTER_NAME    = EARTH
REF_FRAME      = TEME
TIME_SYSTEM    = UTC
MEAN_ELEMENT_THEORY = SGP/SGP4

EPOCH          = 2026-03-17T06:00:02.000160
MEAN_MOTION    = 15.93815181
ECCENTRICITY   = .00016529
INCLINATION    = 97.2792
RA_OF_ASC_NODE = 36.7306
ARG_OF_PERICENTER = 104.7950
MEAN_ANOMALY   = 56.6574

EPHEMERIS_TYPE = 0
CLASSIFICATION_TYPE = U
NORAD_CAT_ID   = 68121
ELEMENT_SET_NO = 999
REV_AT_EPOCH   = 256
BSTAR          = -.58586937E-2
MEAN_MOTION_DOT = -.2097382E-1
MEAN_MOTION_DDOT = .12157964E-2

CCSDS_OMM_VERS = 2.0
CREATION_DATE  = 
ORIGINATOR     = 

OBJECT_NAME    = STARLINK-36366
OBJECT_ID      = 2026-044X
CENTER_NAME    = EARTH
REF_FRAME      = TEME
TIME_SYSTEM    = UTC
MEAN_ELEMENT_THEORY = SGP/SGP4

EPOCH          = 2026-03-17T06:00:02.000160
MEAN_MOTION    = 15.93950051
ECCENTRICITY   = .00016969
INCLINATION    = 97.2789
RA_OF_ASC_NODE = 36.7316
ARG_OF_PERICENTER = 103.7327
MEAN_ANOMALY   = 60.6482

EPHEMERIS_TYPE = 0
CLASSIFICATION_TYPE = U
NORAD_CAT_ID   = 68122
ELEMENT_SET_NO = 999
REV_AT_EPOCH   = 261
BSTAR          = -.58267425E-2
MEAN_MOTION_DOT = -.2100731E-1
MEAN_MOTION_DDOT = .12212661E-2

